{
  "type": "FeatureCollection",
  "features": [
    {
      "type": "Feature",
      "properties": {
        "norad_id": 41556,
        "name": "ZIYUAN 3-2 (ZY 3-2)",
        "group": "resource",
        "lat": 73.13983628679182,
        "lon": 37.88416670195467,
        "alt_km": 502.5523491543863,
        "timestamp": "2025-12-15T04:01:20.100103+00:00",
        "meta_object_name": "ZIYUAN 3-2 (ZY 3-2)",
        "meta_object_id": "2016-033A",
        "meta_epoch": "2025-12-14T08:45:13.135104",
        "meta_mean_motion": 15.21534544,
        "meta_eccentricity": 0.00125942,
        "meta_inclination": 97.4045,
        "meta_ra_of_asc_node": 62.5055,
        "meta_arg_of_pericenter": 242.8599,
        "meta_mean_anomaly": 117.1354,
        "meta_ephemeris_type": 0,
        "meta_classification_type": "U",
        "meta_norad_cat_id": 41556,
        "meta_element_set_no": 999,
        "meta_rev_at_epoch": 52988,
        "meta_bstar": 0.00039047064,
        "meta_mean_motion_dot": 8.747e-05,
        "meta_mean_motion_ddot": 0,
        "tle_line1": "1 41556U 16033A   25348.36473536  .00008747  00000+0  39047-3 0  9994",
        "tle_line2": "2 41556  97.4045  62.5055 0012594 242.8599 117.1354 15.21534544529883"
      },
      "geometry": {
        "type": "Point",
        "coordinates": [
          37.88416670195467,
          73.13983628679182
        ]
      }
    },
    {
      "type": "Feature",
      "properties": {
        "norad_id": 41599,
        "name": "CARTOSAT-2C",
        "group": "resource",
        "lat": -0.7286076054845839,
        "lon": 46.4894047623537,
        "alt_km": 507.07639001766074,
        "timestamp": "2025-12-15T04:01:20.100114+00:00",
        "meta_object_name": "CARTOSAT-2C",
        "meta_object_id": "2016-040A",
        "meta_epoch": "2025-12-14T07:28:36.896160",
        "meta_mean_motion": 15.19317272,
        "meta_eccentricity": 0.00106819,
        "meta_inclination": 97.4767,
        "meta_ra_of_asc_node": 45.5463,
        "meta_arg_of_pericenter": 59.6865,
        "meta_mean_anomaly": 300.5425,
        "meta_ephemeris_type": 0,
        "meta_classification_type": "U",
        "meta_norad_cat_id": 41599,
        "meta_element_set_no": 999,
        "meta_rev_at_epoch": 52564,
        "meta_bstar": 0.00027100776,
        "meta_mean_motion_dot": 5.663e-05,
        "meta_mean_motion_ddot": 0,
        "tle_line1": "1 41599U 16040A   25348.31153815  .00005663  00000+0  27101-3 0  9991",
        "tle_line2": "2 41599  97.4767  45.5463 0010681  59.6865 300.5425 15.19317272525641"
      },
      "geometry": {
        "type": "Point",
        "coordinates": [
          46.4894047623537,
          -0.7286076054845839
        ]
      }
    },
    {
      "type": "Feature",
      "properties": {
        "norad_id": 41601,
        "name": "SKYSAT-C1",
        "group": "resource",
        "lat": 9.098513405997565,
        "lon": -152.8306971781435,
        "alt_km": 471.2361981826898,
        "timestamp": "2025-12-15T04:01:20.100124+00:00",
        "meta_object_name": "SKYSAT-C1",
        "meta_object_id": "2016-040C",
        "meta_epoch": "2025-12-14T02:12:30.764736",
        "meta_mean_motion": 15.32623766,
        "meta_eccentricity": 0.00022252,
        "meta_inclination": 96.9829,
        "meta_ra_of_asc_node": 25.0294,
        "meta_arg_of_pericenter": 11.9046,
        "meta_mean_anomaly": 348.2249,
        "meta_ephemeris_type": 0,
        "meta_classification_type": "U",
        "meta_norad_cat_id": 41601,
        "meta_element_set_no": 999,
        "meta_rev_at_epoch": 52948,
        "meta_bstar": 0.00032402442,
        "meta_mean_motion_dot": 0.00010139,
        "meta_mean_motion_ddot": 0,
        "tle_line1": "1 41601U 16040C   25348.09202274  .00010139  00000+0  32402-3 0  9998",
        "tle_line2": "2 41601  96.9829  25.0294 0002225  11.9046 348.2249 15.32623766529482"
      },
      "geometry": {
        "type": "Point",
        "coordinates": [
          -152.8306971781435,
          9.098513405997565
        ]
      }
    },
    {
      "type": "Feature",
      "properties": {
        "norad_id": 41603,
        "name": "LAPAN-A3",
        "group": "resource",
        "lat": -54.206055425779304,
        "lon": -3.3482735910200607,
        "alt_km": 472.05103148860235,
        "timestamp": "2025-12-15T04:01:20.100135+00:00",
        "meta_object_name": "LAPAN-A3",
        "meta_object_id": "2016-040E",
        "meta_epoch": "2025-12-14T06:18:30.212352",
        "meta_mean_motion": 15.31568458,
        "meta_eccentricity": 0.00094858,
        "meta_inclination": 97.143,
        "meta_ra_of_asc_node": 345.7639,
        "meta_arg_of_pericenter": 328.0062,
        "meta_mean_anomaly": 32.0603,
        "meta_ephemeris_type": 0,
        "meta_classification_type": "U",
        "meta_norad_cat_id": 41603,
        "meta_element_set_no": 999,
        "meta_rev_at_epoch": 52649,
        "meta_bstar": 0.00016922499,
        "meta_mean_motion_dot": 5.09e-05,
        "meta_mean_motion_ddot": 0,
        "tle_line1": "1 41603U 16040E   25348.26284968  .00005090  00000+0  16922-3 0  9998",
        "tle_line2": "2 41603  97.1430 345.7639 0009485 328.0062  32.0603 15.31568458526490"
      },
      "geometry": {
        "type": "Point",
        "coordinates": [
          -3.3482735910200607,
          -54.206055425779304
        ]
      }
    },
    {
      "type": "Feature",
      "properties": {
        "norad_id": 41604,
        "name": "BIROS",
        "group": "resource",
        "lat": -77.33143981630401,
        "lon": 54.20481453417741,
        "alt_km": 309.4010422107467,
        "timestamp": "2025-12-15T04:01:20.100151+00:00",
        "meta_object_name": "BIROS",
        "meta_object_id": "2016-040F",
        "meta_epoch": "2025-12-14T01:10:36.293952",
        "meta_mean_motion": 15.9031628,
        "meta_eccentricity": 0.00035722,
        "meta_inclination": 97.0681,
        "meta_ra_of_asc_node": 19.5346,
        "meta_arg_of_pericenter": 145.824,
        "meta_mean_anomaly": 214.3265,
        "meta_ephemeris_type": 0,
        "meta_classification_type": "U",
        "meta_norad_cat_id": 41604,
        "meta_element_set_no": 999,
        "meta_rev_at_epoch": 52893,
        "meta_bstar": 0.00061164476,
        "meta_mean_motion_dot": 0.00184229,
        "meta_mean_motion_ddot": 1.4255143e-05,
        "tle_line1": "1 41604U 16040F   25348.04903118  .00184229  14255-4  61164-3 0  9992",
        "tle_line2": "2 41604  97.0681  19.5346 0003572 145.8240 214.3265 15.90316280528932"
      },
      "geometry": {
        "type": "Point",
        "coordinates": [
          54.20481453417741,
          -77.33143981630401
        ]
      }
    },
    {
      "type": "Feature",
      "properties": {
        "norad_id": 41727,
        "name": "GAOFEN-3",
        "group": "resource",
        "lat": 22.616109780207836,
        "lon": -8.813934979197972,
        "alt_km": 750.0011080050335,
        "timestamp": "2025-12-15T04:01:20.100161+00:00",
        "meta_object_name": "GAOFEN-3",
        "meta_object_id": "2016-049A",
        "meta_epoch": "2025-12-14T07:56:08.345760",
        "meta_mean_motion": 14.42214748,
        "meta_eccentricity": 0.00013835,
        "meta_inclination": 98.4044,
        "meta_ra_of_asc_node": 353.8929,
        "meta_arg_of_pericenter": 60.3703,
        "meta_mean_anomaly": 299.7625,
        "meta_ephemeris_type": 0,
        "meta_classification_type": "U",
        "meta_norad_cat_id": 41727,
        "meta_element_set_no": 999,
        "meta_rev_at_epoch": 49200,
        "meta_bstar": 9.0426859e-05,
        "meta_mean_motion_dot": 2.54e-06,
        "meta_mean_motion_ddot": 0,
        "tle_line1": "1 41727U 16049A   25348.33065215  .00000254  00000+0  90427-4 0  9994",
        "tle_line2": "2 41727  98.4044 353.8929 0001383  60.3703 299.7625 14.42214748492007"
      },
      "geometry": {
        "type": "Point",
        "coordinates": [
          -8.813934979197972,
          22.616109780207836
        ]
      }
    },
    {
      "type": "Feature",
      "properties": {
        "norad_id": 41771,
        "name": "SKYSAT-C4",
        "group": "resource",
        "lat": -10.397410826372635,
        "lon": -167.04284873183633,
        "alt_km": 442.98841411486865,
        "timestamp": "2025-12-15T04:01:20.100172+00:00",
        "meta_object_name": "SKYSAT-C4",
        "meta_object_id": "2016-058B",
        "meta_epoch": "2025-12-14T08:30:50.912352",
        "meta_mean_motion": 15.42308576,
        "meta_eccentricity": 0.00016762,
        "meta_inclination": 96.938,
        "meta_ra_of_asc_node": 13.4639,
        "meta_arg_of_pericenter": 135.2939,
        "meta_mean_anomaly": 224.8445,
        "meta_ephemeris_type": 0,
        "meta_classification_type": "U",
        "meta_norad_cat_id": 41771,
        "meta_element_set_no": 999,
        "meta_rev_at_epoch": 51692,
        "meta_bstar": 0.00038399753,
        "meta_mean_motion_dot": 0.00016471,
        "meta_mean_motion_ddot": 0,
        "tle_line1": "1 41771U 16058B   25348.35475593  .00016471  00000+0  38400-3 0  9999",
        "tle_line2": "2 41771  96.9380  13.4639 0001676 135.2939 224.8445 15.42308576516928"
      },
      "geometry": {
        "type": "Point",
        "coordinates": [
          -167.04284873183633,
          -10.397410826372635
        ]
      }
    }
  ]
}